NORAD_CAT_ID,OBJECT_NAME,OBJECT_TYPE,EPOCH,MEAN_MOTION,ECCENTRICITY,INCLINATION,RA_OF_ASC_NODE,ARG_OF_PERICENTER,MEAN_ANOMALY,BSTAR,MEAN_MOTION_DOT,MEAN_MOTION_DDOT,TLE_LINE0,TLE_LINE1,TLE_LINE2,SEMIMAJOR_AXIS,PERIOD,APOGEE,PERIGEE,DECAYED
52695.0,STARLINK-4041,PAYLOAD,2022-11-27 16:35:24,15.08844457,0.0002217,53.2189,127.1535,51.0002,309.1188,9.152e-05,1.169e-05,0.0,0 STARLINK-4041,1 52695U 22053AR  22331.69125295  .00001169  00000-0  91520-4 0  9997,2 52695  53.2189 127.1535 0002217  51.0002 309.1188 15.08844457 30235,6917.8669999999975,95.437,541.265,538.198,0.0
52695.0,STARLINK-4041,PAYLOAD,2022-11-27 18:10:47,15.08844742,0.0002222,53.2189,126.8562,51.0191,309.0999,9.2767e-05,1.189e-05,0.0,0 STARLINK-4041,1 52695U 22053AR  22331.75749265  .00001189  00000-0  92767-4 0  9999,2 52695  53.2189 126.8562 0002222  51.0191 309.0999 15.08844742 29836,6917.866,95.437,541.268,538.194,0.0
52695.0,STARLINK-4041,PAYLOAD,2022-11-28 10:04:39,15.08835066,0.0002173,53.2189,123.883,51.0814,309.0371,2.4481e-05,1.01e-06,0.0,0 STARLINK-4041,1 52695U 22053AR  22332.41990297  .00000101  00000-0  24481-4 0  9997,2 52695  53.2189 123.8830 0002173  51.0814 309.0371 15.08835066 29932,6917.895,95.438,541.264,538.257,0.0
52695.0,STARLINK-4041,PAYLOAD,2022-11-28 16:26:12,15.08837704,0.0002175,53.2189,122.6936,51.7309,308.3878,4.3649e-05,4.06e-06,0.0,0 STARLINK-4041,1 52695U 22053AR  22332.68486124  .00000406  00000-0  43649-4 0  9990,2 52695  53.2189 122.6936 0002175  51.7309 308.3878 15.08837704 30380,6917.887,95.438,541.257,538.248,0.0
52695.0,STARLINK-4041,PAYLOAD,2022-11-29 09:55:25,15.08847896,0.0002187,53.2191,119.4229,51.2829,308.8358,4.9175e-05,4.95e-06,0.0,0 STARLINK-4041,1 52695U 22053AR  22333.41349390  .00000495  00000-0  49175-4 0  9993,2 52695  53.2191 119.4229 0002187  51.2829 308.8358 15.08847896 30085,6917.856,95.437,541.234,538.2080000000002,0.0
52695.0,STARLINK-4041,PAYLOAD,2022-11-29 13:06:11,15.08850308,0.0002209,53.2191,118.8282,51.2278,308.8912,7.149600000000001e-05,8.5e-06,0.0,0 STARLINK-4041,1 52695U 22053AR  22333.54597157  .00000850  00000-0  71496-4 0  9999,2 52695  53.2191 118.8282 0002209  51.2278 308.8912 15.08850308 30516,6917.849,95.437,541.242,538.186,0.0
52695.0,STARLINK-4041,PAYLOAD,2022-11-30 09:46:13,15.08835447,0.0002198,53.2191,114.9627,52.6072,307.512,3.8921e-05,3.31e-06,0.0,0 STARLINK-4041,1 52695U 22053AR  22334.40710080  .00000331  00000-0  38921-4 0  9997,2 52695  53.2191 114.9627 0002198  52.6072 307.5120 15.08835447 30233,6917.894,95.438,541.28,538.239,0.0
52695.0,STARLINK-4041,PAYLOAD,2022-11-30 19:18:31,15.08841436,0.0002266,53.2191,113.1787,51.8178,308.3018,5.7152e-05,6.21e-06,0.0,0 STARLINK-4041,1 52695U 22053AR  22334.80453636  .00000621  00000-0  57152-4 0  9991,2 52695  53.2191 113.1787 0002266  51.8178 308.3018 15.08841436 30707,6917.876,95.437,541.309,538.173,0.0
52695.0,STARLINK-4041,PAYLOAD,2022-12-01 11:12:23,15.08841213,0.000219,53.2189,110.2044,51.4436,308.6753,-1.3356e-05,-5.01e-06,0.0,0 STARLINK-4041,1 52695U 22053AR  22335.46693805 -.00000501  00000-0 -13356-4 0  9995,2 52695  53.2189 110.2044 0002190  51.4436 308.6753 15.08841213 30800,6917.877,95.437,541.257,538.227,0.0
52695.0,STARLINK-4041,PAYLOAD,2022-12-01 15:58:32,15.08840533,0.000219,53.2189,109.3123,53.6014,306.518,-2.0833e-05,-6.2e-06,0.0,0 STARLINK-4041,1 52695U 22053AR  22335.66565836 -.00000620  00000-0 -20833-4 0  9999,2 52695  53.2189 109.3123 0002190  53.6014 306.5180 15.08840533 30831,6917.879,95.438,541.259,538.229,0.0
52695.0,STARLINK-4041,PAYLOAD,2022-12-02 09:27:46,15.08847048,0.0002164,53.2191,106.041,49.3424,310.7756,5.8306e-05,6.4e-06,0.0,0 STARLINK-4041,1 52695U 22053AR  22336.39429058  .00000640  00000-0  58306-4 0  9991,2 52695  53.2191 106.0410 0002164  49.3424 310.7756 15.08847048 30536,6917.859,95.437,541.221,538.227,0.0
52695.0,STARLINK-4041,PAYLOAD,2022-12-02 11:03:10,15.08843271,0.0001924,53.219,105.744,54.1976,305.9195,2.2424e-05,6.9e-07,0.0,0 STARLINK-4041,1 52695U 22053AR  22336.46053327  .00000069  00000-0  22424-4 0  9998,2 52695  53.2190 105.7440 0001924  54.1976 305.9195 15.08843271 30956,6917.87,95.437,541.066,538.404,0.0
52695.0,STARLINK-4041,PAYLOAD,2022-12-03 01:21:38,15.08840307,0.0002021,53.2192,103.0692,50.019,310.0979,1.182e-05,-1e-06,0.0,0 STARLINK-4041,1 52695U 22053AR  22337.05669504 -.00000100  00000-0  11820-4 0  9999,2 52695  53.2192 103.0692 0002021  50.0190 310.0979 15.08840307 30639,6917.879,95.438,541.143,538.346,0.0
52695.0,STARLINK-4041,PAYLOAD,2022-12-03 12:29:20,15.08832525,0.0002013,53.2192,100.9883,49.0563,311.0603,1.2805e-06,-2.68e-06,0.0,0 STARLINK-4041,1 52695U 22053AR  22337.52038120 -.00000268  00000-0  12805-5 0  9995,2 52695  53.2192 100.9883 0002013  49.0563 311.0603 15.08832525 31112,6917.903,95.438,541.161,538.376,0.0
52695.0,STARLINK-4041,PAYLOAD,2022-12-03 17:15:30,15.0883658,0.0002125,53.22,100.0962,44.8072,315.3092,8.5547e-06,-1.52e-06,0.0,0 STARLINK-4041,1 52695U 22053AR  22337.71909901 -.00000152  00000-0  85547-5 0  9995,2 52695  53.2200 100.0962 0002125  44.8072 315.3092 15.08836580 31140,6917.891,95.438,541.226,538.286,0.0
52695.0,STARLINK-4041,PAYLOAD,2022-12-04 09:09:21,15.08836541,0.0002071,53.2204,97.122,42.2603,317.8549,6.8719e-06,-1.79e-06,0.0,0 STARLINK-4041,1 52695U 22053AR  22338.38149953 -.00000179  00000-0  68719-5 0  9993,2 52695  53.2204  97.1220 0002071  42.2603 317.8549 15.08836541 30835,6917.891,95.438,541.189,538.323,0.0
52695.0,STARLINK-4041,PAYLOAD,2022-12-04 15:30:53,15.0886925,0.0001959,53.2205,95.9329,41.2167,318.8973,-0.00044838,-7.423e-05,0.0,0 STARLINK-4041,1 52695U 22053AR  22338.64645362 -.00007423  00000-0 -44838-3 0  9991,2 52695  53.2205  95.9329 0001959  41.2167 318.8973 15.08869250 31285,6917.791,95.436,541.011,538.3009999999998,0.0
52695.0,STARLINK-4041,PAYLOAD,2022-12-05 09:00:08,15.08848712,0.0002282,53.2207,92.6616,46.56100000000001,313.5572,4.026e-06,-2.24e-06,0.0,0 STARLINK-4041,1 52695U 22053AR  22339.37509414 -.00000224  00000-0  40260-5 0  9997,2 52695  53.2207  92.6616 0002282  46.5610 313.5572 15.08848712 30984,6917.854,95.437,541.297,538.14,0.0
52695.0,STARLINK-4041,PAYLOAD,2022-12-05 15:21:40,15.08841124,0.0002006,53.2208,91.4724,47.8462,312.27,9.8599e-05,1.281e-05,0.0,0 STARLINK-4041,1 52695U 22053AR  22339.64005605  .00001281  00000-0  98599-4 0  9990,2 52695  53.2208  91.4724 0002006  47.8462 312.2700 15.08841124 31435,6917.877,95.437,541.13,538.354,0.0
52695.0,STARLINK-4041,PAYLOAD,2022-12-06 00:53:58,15.08851307,0.0002077,53.2209,89.6888,44.7762,315.3398,0.00013158,1.807e-05,0.0,0 STARLINK-4041,1 52695U 22053AR  22340.03748729  .00001807  00000-0  13158-3 0  9997,2 52695  53.2209  89.6888 0002077  44.7762 315.3398 15.08851307 31490,6917.846,95.437,541.148,538.274,0.0
52695.0,STARLINK-4041,PAYLOAD,2022-12-06 18:23:14,15.088340300000002,0.0001838,53.2196,86.4165,44.0042,316.1096,9.0414e-06,-1.44e-06,0.0,0 STARLINK-4041,1 52695U 22053AR  22340.76614049 -.00000144  00000-0  90414-5 0  9990,2 52695  53.2196  86.4165 0001838  44.0042 316.1096 15.08834030 31191,6917.899,95.438,541.035,538.492,0.0
52695.0,STARLINK-4041,PAYLOAD,2022-12-07 16:38:37,15.088455599999998,0.0001907,53.2211,82.2585,17.253,342.8527,8.059899999999999e-05,9.95e-06,0.0,0 STARLINK-4041,1 52695U 22053AR  22341.69349243  .00000995  00000-0  80599-4 0  9999,2 52695  53.2211  82.2585 0001907  17.2530 342.8527 15.08845560 31331,6917.863,95.437,541.048,538.409,0.0
52695.0,STARLINK-4041,PAYLOAD,2022-12-08 13:18:38,15.08844446,0.0002038,53.2188,78.3918,33.7327,326.3794,0.00012507,1.703e-05,0.0,0 STARLINK-4041,1 52695U 22053AR  22342.55460934  .00001703  00000-0  12507-3 0  9997,2 52695  53.2188  78.3918 0002038  33.7327 326.3794 15.08844446 31877,6917.8669999999975,95.437,541.1419999999998,538.322,0.0
52695.0,STARLINK-4041,PAYLOAD,2022-12-09 06:47:52,15.08847698,0.0002068,53.2187,75.1205,35.749,324.3640000000001,0.00016233,2.297e-05,0.0,0 STARLINK-4041,1 52695U 22053AR  22343.28324412  .00002297  00000-0  16233-3 0  9997,2 52695  53.2187  75.1205 0002068  35.7490 324.3640 15.08847698 31988,6917.857,95.437,541.1519999999998,538.2909999999998,0.0
52695.0,STARLINK-4041,PAYLOAD,2022-12-10 11:24:49,15.08842516,0.0002013,53.2201,69.7668,44.2787,315.8366,-3.0442e-05,-7.73e-06,0.0,0 STARLINK-4041,1 52695U 22053AR  22344.47557159 -.00000773  00000-0 -30442-4 0  9993,2 52695  53.2201  69.7668 0002013  44.2787 315.8366 15.08842516 31750,6917.873000000001,95.437,541.13,538.345,0.0
52695.0,STARLINK-4041,PAYLOAD,2022-12-10 13:00:12,15.08840046,0.000221,53.2193,69.471,33.7114,326.4019,-4.9756e-05,-1.0800000000000003e-05,0.0,0 STARLINK-4041,1 52695U 22053AR  22344.54181419 -.00001080  00000-0 -49756-4 0  9993,2 52695  53.2193  69.4710 0002210  33.7114 326.4019 15.08840046 32177,6917.88,95.438,541.274,538.216,0.0
52695.0,STARLINK-4041,PAYLOAD,2022-12-11 04:54:04,15.08830798,0.0002245,53.2191,66.4963,34.2425,325.8712,4.8694e-05,4.87e-06,0.0,0 STARLINK-4041,1 52695U 22053AR  22345.20421668  .00000487  00000-0  48694-4 0  9998,2 52695  53.2191  66.4963 0002245  34.2425 325.8712 15.08830798 31862,6917.909000000002,95.438,541.327,538.22,0.0
52695.0,STARLINK-4041,PAYLOAD,2022-12-11 12:51:00,15.08832053,0.0002205,53.2194,65.0086,38.4684,321.6465,5.5847e-05,6e-06,0.0,0 STARLINK-4041,1 52695U 22053AR  22345.53541765  .00000600  00000-0  55847-4 0  9990,2 52695  53.2194  65.0086 0002205  38.4684 321.6465 15.08832053 32322,6917.905,95.438,541.295,538.244,0.0
52695.0,STARLINK-4041,PAYLOAD,2022-12-12 09:31:00,15.08836668,0.000212,53.2204,61.1438,40.5062,319.6088,8.591299999999999e-05,1.079e-05,0.0,0 STARLINK-4041,1 52695U 22053AR  22346.39653851  .00001079  00000-0  85913-4 0  9993,2 52695  53.2204  61.1438 0002120  40.5062 319.6088 15.08836668 32045,6917.891,95.438,541.222,538.289,0.0
